{
  "type": "FeatureCollection",
  "features": [
    {
      "type": "Feature",
      "properties": {
        "norad_id": 58647,
        "name": "TIANMU-1 13",
        "group": "weather",
        "lat": 52.999430869802936,
        "lon": 9.01296716469664,
        "alt_km": 491.0776743790284,
        "timestamp": "2025-12-25T11:37:44.065316+00:00",
        "meta_object_name": "TIANMU-1 13",
        "meta_object_id": "2023-205C",
        "meta_epoch": "2025-12-25T03:31:06.964032",
        "meta_mean_motion": 15.24676047,
        "meta_eccentricity": 0.0006664,
        "meta_inclination": 97.3613,
        "meta_ra_of_asc_node": 18.5593,
        "meta_arg_of_pericenter": 213.0912,
        "meta_mean_anomaly": 146.991,
        "meta_ephemeris_type": 0,
        "meta_classification_type": "U",
        "meta_norad_cat_id": 58647,
        "meta_element_set_no": 999,
        "meta_rev_at_epoch": 11096,
        "meta_bstar": 0.00029127,
        "meta_mean_motion_dot": 7.132e-05,
        "meta_mean_motion_ddot": 0,
        "tle_line1": "1 58647U 23205C   25359.14660838  .00007132  00000+0  29127-3 0  9998",
        "tle_line2": "2 58647  97.3613  18.5593 0006664 213.0912 146.9910 15.24676047110961"
      },
      "geometry": {
        "type": "Point",
        "coordinates": [
          9.01296716469664,
          52.999430869802936
        ]
      }
    },
    {
      "type": "Feature",
      "properties": {
        "norad_id": 58648,
        "name": "TIANMU-1 14",
        "group": "weather",
        "lat": 35.640263299438615,
        "lon": -156.45788630292213,
        "alt_km": 488.05305493550713,
        "timestamp": "2025-12-25T11:37:44.065326+00:00",
        "meta_object_name": "TIANMU-1 14",
        "meta_object_id": "2023-205D",
        "meta_epoch": "2025-12-25T04:41:55.028256",
        "meta_mean_motion": 15.24660114,
        "meta_eccentricity": 0.0007359,
        "meta_inclination": 97.3545,
        "meta_ra_of_asc_node": 17.945,
        "meta_arg_of_pericenter": 218.9834,
        "meta_mean_anomaly": 141.0874,
        "meta_ephemeris_type": 0,
        "meta_classification_type": "U",
        "meta_norad_cat_id": 58648,
        "meta_element_set_no": 999,
        "meta_rev_at_epoch": 11097,
        "meta_bstar": 0.00028832,
        "meta_mean_motion_dot": 7.057e-05,
        "meta_mean_motion_ddot": 0,
        "tle_line1": "1 58648U 23205D   25359.19577579  .00007057  00000+0  28832-3 0  9991",
        "tle_line2": "2 58648  97.3545  17.9450 0007359 218.9834 141.0874 15.24660114110974"
      },
      "geometry": {
        "type": "Point",
        "coordinates": [
          -156.45788630292213,
          35.640263299438615
        ]
      }
    },
    {
      "type": "Feature",
      "properties": {
        "norad_id": 58660,
        "name": "TIANMU-1 19",
        "group": "weather",
        "lat": -13.726215694783642,
        "lon": -71.33076633255997,
        "alt_km": 482.9672603017734,
        "timestamp": "2025-12-25T11:37:44.065337+00:00",
        "meta_object_name": "TIANMU-1 19",
        "meta_object_id": "2023-208A",
        "meta_epoch": "2025-12-25T04:29:49.864416",
        "meta_mean_motion": 15.28073467,
        "meta_eccentricity": 0.0004802,
        "meta_inclination": 97.4389,
        "meta_ra_of_asc_node": 110.2015,
        "meta_arg_of_pericenter": 200.1267,
        "meta_mean_anomaly": 159.9784,
        "meta_ephemeris_type": 0,
        "meta_classification_type": "U",
        "meta_norad_cat_id": 58660,
        "meta_element_set_no": 999,
        "meta_rev_at_epoch": 11072,
        "meta_bstar": 0.00038956,
        "meta_mean_motion_dot": 0.00010598,
        "meta_mean_motion_ddot": 0,
        "tle_line1": "1 58660U 23208A   25359.18738269  .00010598  00000+0  38956-3 0  9994",
        "tle_line2": "2 58660  97.4389 110.2015 0004802 200.1267 159.9784 15.28073467110726"
      },
      "geometry": {
        "type": "Point",
        "coordinates": [
          -71.33076633255997,
          -13.726215694783642
        ]
      }
    },
    {
      "type": "Feature",
      "properties": {
        "norad_id": 58661,
        "name": "TIANMU-1 20",
        "group": "weather",
        "lat": -37.1671940213233,
        "lon": 116.63824223062097,
        "alt_km": 485.98536019238054,
        "timestamp": "2025-12-25T11:37:44.065346+00:00",
        "meta_object_name": "TIANMU-1 20",
        "meta_object_id": "2023-208B",
        "meta_epoch": "2025-12-25T05:30:40.701600",
        "meta_mean_motion": 15.29265036,
        "meta_eccentricity": 0.0006818,
        "meta_inclination": 97.4326,
        "meta_ra_of_asc_node": 110.7035,
        "meta_arg_of_pericenter": 214.2,
        "meta_mean_anomaly": 145.8802,
        "meta_ephemeris_type": 0,
        "meta_classification_type": "U",
        "meta_norad_cat_id": 58661,
        "meta_element_set_no": 999,
        "meta_rev_at_epoch": 11080,
        "meta_bstar": 0.0003586,
        "meta_mean_motion_dot": 0.00010115,
        "meta_mean_motion_ddot": 0,
        "tle_line1": "1 58661U 23208B   25359.22963775  .00010115  00000+0  35860-3 0  9998",
        "tle_line2": "2 58661  97.4326 110.7035 0006818 214.2000 145.8802 15.29265036110805"
      },
      "geometry": {
        "type": "Point",
        "coordinates": [
          116.63824223062097,
          -37.1671940213233
        ]
      }
    },
    {
      "type": "Feature",
      "properties": {
        "norad_id": 58662,
        "name": "TIANMU-1 21",
        "group": "weather",
        "lat": 79.84087066475084,
        "lon": 66.11891370948257,
        "alt_km": 465.53496315334087,
        "timestamp": "2025-12-25T11:37:44.065359+00:00",
        "meta_object_name": "TIANMU-1 21",
        "meta_object_id": "2023-208C",
        "meta_epoch": "2025-12-25T04:59:46.017600",
        "meta_mean_motion": 15.31814811,
        "meta_eccentricity": 0.0006474,
        "meta_inclination": 97.4376,
        "meta_ra_of_asc_node": 112.6468,
        "meta_arg_of_pericenter": 208.8207,
        "meta_mean_anomaly": 151.2678,
        "meta_ephemeris_type": 0,
        "meta_classification_type": "U",
        "meta_norad_cat_id": 58662,
        "meta_element_set_no": 999,
        "meta_rev_at_epoch": 11090,
        "meta_bstar": 0.00041838,
        "meta_mean_motion_dot": 0.00012789,
        "meta_mean_motion_ddot": 0,
        "tle_line1": "1 58662U 23208C   25359.20817150  .00012789  00000+0  41838-3 0  9993",
        "tle_line2": "2 58662  97.4376 112.6468 0006474 208.8207 151.2678 15.31814811110905"
      },
      "geometry": {
        "type": "Point",
        "coordinates": [
          66.11891370948257,
          79.84087066475084
        ]
      }
    },
    {
      "type": "Feature",
      "properties": {
        "norad_id": 58663,
        "name": "TIANMU-1 22",
        "group": "weather",
        "lat": -3.3826781127058174,
        "lon": -69.89112004035034,
        "alt_km": 484.27607747269485,
        "timestamp": "2025-12-25T11:37:44.065371+00:00",
        "meta_object_name": "TIANMU-1 22",
        "meta_object_id": "2023-208D",
        "meta_epoch": "2025-12-25T04:32:29.152320",
        "meta_mean_motion": 15.27811543,
        "meta_eccentricity": 0.000299,
        "meta_inclination": 97.4382,
        "meta_ra_of_asc_node": 110.2567,
        "meta_arg_of_pericenter": 223.4419,
        "meta_mean_anomaly": 136.6585,
        "meta_ephemeris_type": 0,
        "meta_classification_type": "U",
        "meta_norad_cat_id": 58663,
        "meta_element_set_no": 999,
        "meta_rev_at_epoch": 11073,
        "meta_bstar": 0.00036683,
        "meta_mean_motion_dot": 9.893e-05,
        "meta_mean_motion_ddot": 0,
        "tle_line1": "1 58663U 23208D   25359.18922630  .00009893  00000+0  36683-3 0  9995",
        "tle_line2": "2 58663  97.4382 110.2567 0002990 223.4419 136.6585 15.27811543110733"
      },
      "geometry": {
        "type": "Point",
        "coordinates": [
          -69.89112004035034,
          -3.3826781127058174
        ]
      }
    },
    {
      "type": "Feature",
      "properties": {
        "norad_id": 58700,
        "name": "TIANMU-1 15",
        "group": "weather",
        "lat": 14.309905021401063,
        "lon": 2.8224280213435744,
        "alt_km": 491.73073477492926,
        "timestamp": "2025-12-25T11:37:44.065381+00:00",
        "meta_object_name": "TIANMU-1 15",
        "meta_object_id": "2024-004A",
        "meta_epoch": "2025-12-25T04:36:14.687424",
        "meta_mean_motion": 15.24569361,
        "meta_eccentricity": 0.0006079,
        "meta_inclination": 97.4629,
        "meta_ra_of_asc_node": 180.6147,
        "meta_arg_of_pericenter": 237.1517,
        "meta_mean_anomaly": 122.9136,
        "meta_ephemeris_type": 0,
        "meta_classification_type": "U",
        "meta_norad_cat_id": 58700,
        "meta_element_set_no": 999,
        "meta_rev_at_epoch": 10924,
        "meta_bstar": 0.00032282,
        "meta_mean_motion_dot": 7.886e-05,
        "meta_mean_motion_ddot": 0,
        "tle_line1": "1 58700U 24004A   25359.19183666  .00007886  00000+0  32282-3 0  9992",
        "tle_line2": "2 58700  97.4629 180.6147 0006079 237.1517 122.9136 15.24569361109246"
      },
      "geometry": {
        "type": "Point",
        "coordinates": [
          2.8224280213435744,
          14.309905021401063
        ]
      }
    }
  ]
}